METEOSAT-11 (MSG-4)     
1 40732U 15034A   26116.28204089  .00000053  00000+0  00000+0 0  9994
2 40732   3.0719  71.3786 0001597 344.6611 269.3715  1.00263970  6699
ELEKTRO-L 2             
1 41105U 15074A   26116.20586059 -.00000126  00000+0  00000+0 0  9997
2 41105   6.5659  71.1488 0002269 255.6194 307.0430  1.00270527 37982
INSAT-3DR               
1 41752U 16054A   26116.19280867 -.00000090  00000+0  00000+0 0  9990
2 41752   0.1134  86.1839 0011648 195.1321  76.2833  1.00271343 35296
HIMAWARI-9              
1 41836U 16064A   26116.51711252 -.00000287  00000+0  00000+0 0  9995
2 41836   0.0373 125.0471 0000856 280.6948 135.7012  1.00272052 34693
GOES 16                 
1 41866U 16071A   26116.52834772 -.00000103  00000+0  00000+0 0  9997
2 41866   0.2120  85.2831 0001506 249.7867 324.9509  1.00271169 34583
FENGYUN 4A              
1 41882U 16077A   26115.30638583 -.00000369  00000+0  00000+0 0  9992
2 41882   2.1903  80.7930 0008212 141.4993 225.0593  1.00267100 34405
CYGFM05                 
1 41884U 16078A   26116.45128440  .00027053  00000+0  39802-3 0  9992
2 41884  34.9568 242.5812 0007167  21.1703 338.9316 15.54414690520695
CYGFM04                 
1 41885U 16078B   26116.50838338  .00032923  00000+0  41324-3 0  9997
2 41885  34.9324 212.3243 0006043  68.7628 291.3742 15.58651286520923
CYGFM02                 
1 41886U 16078C   26116.53209682  .00036390  00000+0  41698-3 0  9991
2 41886  34.9407 208.0204 0007147  69.7890 290.3603 15.61006643521081
CYGFM01                 
1 41887U 16078D   26116.46132826  .00027852  00000+0  40072-3 0  9997
2 41887  34.9400 243.9716 0006880  14.2770 345.8147 15.55019017520648
CYGFM08                 
1 41888U 16078E   26116.50369439  .00030677  00000+0  40427-3 0  9998
2 41888  34.9431 224.5392 0008083  47.2437 312.8967 15.57354115520907
CYGFM07                 
1 41890U 16078G   26116.46592464  .00030057  00000+0  39517-3 0  9992
2 41890  34.9446 213.1735 0006489  66.6343 293.5063 15.57433411520921
CYGFM03                 
1 41891U 16078H   26116.56506242  .00030452  00000+0  40020-3 0  9993
2 41891  34.9402 214.4720 0005790  53.9962 306.1299 15.57447054520911
FENGYUN 3D              
1 43010U 17072A   26116.48912596  .00000136  00000+0  86180-4 0  9991
2 43010  99.0095  89.9879 0001382 153.6023 206.5223 14.19727914437656
NOAA 20 (JPSS-1)        
1 43013U 17073A   26116.47616957  .00000060  00000+0  49505-4 0  9992
2 43013  98.7745  56.4052 0002100  72.5272 287.6133 14.19547625437135
GOES 17                 
1 43226U 18022A   26116.47629977 -.00000194  00000+0  00000+0 0  9990
2 43226   0.8069  86.4035 0000656 273.4258 296.6261  1.00272021 29903
FENGYUN 2H              
1 43491U 18050A   26116.50966657 -.00000139  00000+0  00000+0 0  9997
2 43491   2.9004  79.6515 0001719 159.6578 237.9355  1.00274286 28925
