[{"OBJECT_NAME":"METEOSAT-11 (MSG-4)","OBJECT_ID":"2015-034A","EPOCH":"2026-04-26T06:46:08.332896","MEAN_MOTION":1.0026397,"ECCENTRICITY":0.0001597,"INCLINATION":3.0719,"RA_OF_ASC_NODE":71.3786,"ARG_OF_PERICENTER":344.6611,"MEAN_ANOMALY":269.3715,"EPHEMERIS_TYPE":0,"CLASSIFICATION_TYPE":"U","NORAD_CAT_ID":40732,"ELEMENT_SET_NO":999,"REV_AT_EPOCH":669,"BSTAR":0,"MEAN_MOTION_DOT":5.3e-7,"MEAN_MOTION_DDOT":0},{"OBJECT_NAME":"ELEKTRO-L 2","OBJECT_ID":"2015-074A","EPOCH":"2026-04-26T04:56:26.354976","MEAN_MOTION":1.00270527,"ECCENTRICITY":0.0002269,"INCLINATION":6.5659,"RA_OF_ASC_NODE":71.1488,"ARG_OF_PERICENTER":255.6194,"MEAN_ANOMALY":307.043,"EPHEMERIS_TYPE":0,"CLASSIFICATION_TYPE":"U","NORAD_CAT_ID":41105,"ELEMENT_SET_NO":999,"REV_AT_EPOCH":3798,"BSTAR":0,"MEAN_MOTION_DOT":-1.26e-6,"MEAN_MOTION_DDOT":0},{"OBJECT_NAME":"INSAT-3DR","OBJECT_ID":"2016-054A","EPOCH":"2026-04-26T04:37:38.669088","MEAN_MOTION":1.00271343,"ECCENTRICITY":0.0011648,"INCLINATION":0.1134,"RA_OF_ASC_NODE":86.1839,"ARG_OF_PERICENTER":195.1321,"MEAN_ANOMALY":76.2833,"EPHEMERIS_TYPE":0,"CLASSIFICATION_TYPE":"U","NORAD_CAT_ID":41752,"ELEMENT_SET_NO":999,"REV_AT_EPOCH":3529,"BSTAR":0,"MEAN_MOTION_DOT":-9.0e-7,"MEAN_MOTION_DDOT":0},{"OBJECT_NAME":"HIMAWARI-9","OBJECT_ID":"2016-064A","EPOCH":"2026-04-26T12:24:38.521728","MEAN_MOTION":1.00272052,"ECCENTRICITY":8.56e-5,"INCLINATION":0.0373,"RA_OF_ASC_NODE":125.0471,"ARG_OF_PERICENTER":280.6948,"MEAN_ANOMALY":135.7012,"EPHEMERIS_TYPE":0,"CLASSIFICATION_TYPE":"U","NORAD_CAT_ID":41836,"ELEMENT_SET_NO":999,"REV_AT_EPOCH":3469,"BSTAR":0,"MEAN_MOTION_DOT":-2.87e-6,"MEAN_MOTION_DDOT":0},{"OBJECT_NAME":"GOES 16","OBJECT_ID":"2016-071A","EPOCH":"2026-04-26T12:40:49.243008","MEAN_MOTION":1.00271169,"ECCENTRICITY":0.0001506,"INCLINATION":0.212,"RA_OF_ASC_NODE":85.2831,"ARG_OF_PERICENTER":249.7867,"MEAN_ANOMALY":324.9509,"EPHEMERIS_TYPE":0,"CLASSIFICATION_TYPE":"U","NORAD_CAT_ID":41866,"ELEMENT_SET_NO":999,"REV_AT_EPOCH":3458,"BSTAR":0,"MEAN_MOTION_DOT":-1.03e-6,"MEAN_MOTION_DDOT":0},{"OBJECT_NAME":"FENGYUN 4A","OBJECT_ID":"2016-077A","EPOCH":"2026-04-25T07:21:11.735712","MEAN_MOTION":1.002671,"ECCENTRICITY":0.00082125,"INCLINATION":2.1903,"RA_OF_ASC_NODE":80.793,"ARG_OF_PERICENTER":141.4993,"MEAN_ANOMALY":225.0593,"EPHEMERIS_TYPE":0,"CLASSIFICATION_TYPE":"U","NORAD_CAT_ID":41882,"ELEMENT_SET_NO":999,"REV_AT_EPOCH":3440,"BSTAR":0,"MEAN_MOTION_DOT":-3.69e-6,"MEAN_MOTION_DDOT":0},{"OBJECT_NAME":"CYGFM05","OBJECT_ID":"2016-078A","EPOCH":"2026-04-26T10:49:50.972160","MEAN_MOTION":15.5441469,"ECCENTRICITY":0.0007167,"INCLINATION":34.9568,"RA_OF_ASC_NODE":242.5812,"ARG_OF_PERICENTER":21.1703,"MEAN_ANOMALY":338.9316,"EPHEMERIS_TYPE":0,"CLASSIFICATION_TYPE":"U","NORAD_CAT_ID":41884,"ELEMENT_SET_NO":999,"REV_AT_EPOCH":52069,"BSTAR":0.00039802,"MEAN_MOTION_DOT":0.00027053,"MEAN_MOTION_DDOT":0},{"OBJECT_NAME":"CYGFM04","OBJECT_ID":"2016-078B","EPOCH":"2026-04-26T12:12:04.324032","MEAN_MOTION":15.58651286,"ECCENTRICITY":0.0006043,"INCLINATION":34.9324,"RA_OF_ASC_NODE":212.3243,"ARG_OF_PERICENTER":68.7628,"MEAN_ANOMALY":291.3742,"EPHEMERIS_TYPE":0,"CLASSIFICATION_TYPE":"U","NORAD_CAT_ID":41885,"ELEMENT_SET_NO":999,"REV_AT_EPOCH":52092,"BSTAR":0.00041324,"MEAN_MOTION_DOT":0.00032923,"MEAN_MOTION_DDOT":0},{"OBJECT_NAME":"CYGFM02","OBJECT_ID":"2016-078C","EPOCH":"2026-04-26T12:46:13.165248","MEAN_MOTION":15.61006643,"ECCENTRICITY":0.0007147,"INCLINATION":34.9407,"RA_OF_ASC_NODE":208.0204,"ARG_OF_PERICENTER":69.789,"MEAN_ANOMALY":290.3603,"EPHEMERIS_TYPE":0,"CLASSIFICATION_TYPE":"U","NORAD_CAT_ID":41886,"ELEMENT_SET_NO":999,"REV_AT_EPOCH":52108,"BSTAR":0.00041698,"MEAN_MOTION_DOT":0.0003639,"MEAN_MOTION_DDOT":0},{"OBJECT_NAME":"CYGFM01","OBJECT_ID":"2016-078D","EPOCH":"2026-04-26T11:04:18.761664","MEAN_MOTION":15.55019017,"ECCENTRICITY":0.000688,"INCLINATION":34.94,"RA_OF_ASC_NODE":243.9716,"ARG_OF_PERICENTER":14.277,"MEAN_ANOMALY":345.8147,"EPHEMERIS_TYPE":0,"CLASSIFICATION_TYPE":"U","NORAD_CAT_ID":41887,"ELEMENT_SET_NO":999,"REV_AT_EPOCH":52064,"BSTAR":0.00040072,"MEAN_MOTION_DOT":0.00027852,"MEAN_MOTION_DDOT":0},{"OBJECT_NAME":"CYGFM08","OBJECT_ID":"2016-078E","EPOCH":"2026-04-26T12:05:19.195296","MEAN_MOTION":15.57354115,"ECCENTRICITY":0.0008083,"INCLINATION":34.9431,"RA_OF_ASC_NODE":224.5392,"ARG_OF_PERICENTER":47.2437,"MEAN_ANOMALY":312.8967,"EPHEMERIS_TYPE":0,"CLASSIFICATION_TYPE":"U","NORAD_CAT_ID":41888,"ELEMENT_SET_NO":999,"REV_AT_EPOCH":52090,"BSTAR":0.00040427,"MEAN_MOTION_DOT":0.00030677,"MEAN_MOTION_DDOT":0},{"OBJECT_NAME":"CYGFM07","OBJECT_ID":"2016-078G","EPOCH":"2026-04-26T11:10:55.888896","MEAN_MOTION":15.57433411,"ECCENTRICITY":0.0006489,"INCLINATION":34.9446,"RA_OF_ASC_NODE":213.1735,"ARG_OF_PERICENTER":66.6343,"MEAN_ANOMALY":293.5063,"EPHEMERIS_TYPE":0,"CLASSIFICATION_TYPE":"U","NORAD_CAT_ID":41890,"ELEMENT_SET_NO":999,"REV_AT_EPOCH":52092,"BSTAR":0.00039517,"MEAN_MOTION_DOT":0.00030057,"MEAN_MOTION_DDOT":0},{"OBJECT_NAME":"CYGFM03","OBJECT_ID":"2016-078H","EPOCH":"2026-04-26T13:33:41.393088","MEAN_MOTION":15.57447054,"ECCENTRICITY":0.000579,"INCLINATION":34.9402,"RA_OF_ASC_NODE":214.472,"ARG_OF_PERICENTER":53.9962,"MEAN_ANOMALY":306.1299,"EPHEMERIS_TYPE":0,"CLASSIFICATION_TYPE":"U","NORAD_CAT_ID":41891,"ELEMENT_SET_NO":999,"REV_AT_EPOCH":52091,"BSTAR":0.0004002,"MEAN_MOTION_DOT":0.00030452,"MEAN_MOTION_DDOT":0},{"OBJECT_NAME":"FENGYUN 3D","OBJECT_ID":"2017-072A","EPOCH":"2026-04-26T11:44:20.482944","MEAN_MOTION":14.19727914,"ECCENTRICITY":0.0001382,"INCLINATION":99.0095,"RA_OF_ASC_NODE":89.9879,"ARG_OF_PERICENTER":153.6023,"MEAN_ANOMALY":206.5223,"EPHEMERIS_TYPE":0,"CLASSIFICATION_TYPE":"U","NORAD_CAT_ID":43010,"ELEMENT_SET_NO":999,"REV_AT_EPOCH":43765,"BSTAR":8.618e-5,"MEAN_MOTION_DOT":1.36e-6,"MEAN_MOTION_DDOT":0},{"OBJECT_NAME":"NOAA 20 (JPSS-1)","OBJECT_ID":"2017-073A","EPOCH":"2026-04-26T11:25:41.050848","MEAN_MOTION":14.19547625,"ECCENTRICITY":0.00021,"INCLINATION":98.7745,"RA_OF_ASC_NODE":56.4052,"ARG_OF_PERICENTER":72.5272,"MEAN_ANOMALY":287.6133,"EPHEMERIS_TYPE":0,"CLASSIFICATION_TYPE":"U","NORAD_CAT_ID":43013,"ELEMENT_SET_NO":999,"REV_AT_EPOCH":43713,"BSTAR":4.9505e-5,"MEAN_MOTION_DOT":6.0e-7,"MEAN_MOTION_DDOT":0},{"OBJECT_NAME":"GOES 17","OBJECT_ID":"2018-022A","EPOCH":"2026-04-26T11:25:52.300128","MEAN_MOTION":1.00272021,"ECCENTRICITY":6.56e-5,"INCLINATION":0.8069,"RA_OF_ASC_NODE":86.4035,"ARG_OF_PERICENTER":273.4258,"MEAN_ANOMALY":296.6261,"EPHEMERIS_TYPE":0,"CLASSIFICATION_TYPE":"U","NORAD_CAT_ID":43226,"ELEMENT_SET_NO":999,"REV_AT_EPOCH":2990,"BSTAR":0,"MEAN_MOTION_DOT":-1.94e-6,"MEAN_MOTION_DDOT":0},{"OBJECT_NAME":"FENGYUN 2H","OBJECT_ID":"2018-050A","EPOCH":"2026-04-26T12:13:55.191648","MEAN_MOTION":1.00274286,"ECCENTRICITY":0.0001719,"INCLINATION":2.9004,"RA_OF_ASC_NODE":79.6515,"ARG_OF_PERICENTER":159.6578,"MEAN_ANOMALY":237.9355,"EPHEMERIS_TYPE":0,"CLASSIFICATION_TYPE":"U","NORAD_CAT_ID":43491,"ELEMENT_SET_NO":999,"REV_AT_EPOCH":2892,"BSTAR":0,"MEAN_MOTION_DOT":-1.39e-6,"MEAN_MOTION_DDOT":0}]
